AMC-1 (GE-1)            
1 24315U 96054A   23291.54912410  .00000116  00000+0  00000+0 0  9998
2 24315   6.7782  68.8044 0008600 178.4793 198.1315  0.99504863 99268
AMC-3 (GE-3)            
1 24936U 97050A   23291.39468626 -.00000247  00000+0  00000+0 0  9998
2 24936   5.7411  74.6768 0002580 129.3067 252.7674  1.00271528 95693
ASTRA 1G                
1 25071U 97076A   23291.55303565 -.00000170  00000+0  00000+0 0  9990
2 25071   7.2409  63.4436 0010260 126.1781 212.6393  0.99040655 94760
ASTRA 2A                
1 25462U 98050A   23291.49206459  .00000082  00000+0  00000+0 0  9995
2 25462   4.6269  80.1895 0002902 123.9235  56.9826  1.00270991 91989
NSS-11 (AAP-1)          
1 26554U 00059A   23291.55293600  .00000038  00000+0  00000+0 0  9992
2 26554   0.0540  65.3952 0003053 129.0664 207.4092  1.00271133 84422
AMC-6 (GE-6)            
1 26580U 00067A   23291.54922743  .00000117  00000+0  00000+0 0  9994
2 26580   0.0513  64.0581 0002140 145.2337 236.2211  1.00271491 84237
ASTRA 2C                
1 26853U 01025A   23291.19042583 -.00000245  00000+0  00000+0 0  9991
2 26853   5.7629  74.4954 0002483 132.2499 175.7880  1.00272812 81812
NSS-7                   
1 27414U 02019A   23291.11847645 -.00000144  00000+0  00000+0 0  9991
2 27414   7.0427  67.0671 0002509 154.3773 187.5852  1.00272028 78804
NSS-6                   
1 27603U 02057A   23291.46587078 -.00000099  00000+0  00000+0 0  9991
2 27603   2.8484  86.1610 0004219 171.3648 222.8140  0.99123528 76274
AMC-11 (GE-11)          
1 28252U 04017A   23291.56669521 -.00000037  00000+0  00000+0 0  9997
2 28252   0.0561  62.6921 0002382 162.5899 254.4541  1.00266896 70958
AMC-15                  
1 28446U 04041A   23291.08938240 -.00000075  00000+0  00000+0 0  9995
2 28446   0.0226 356.5741 0002413 204.1444 112.7725  1.00271431 69555
NSS-10 (AMC-12)         
1 28526U 05003A   23291.22410446 -.00000236  00000+0  00000+0 0  9991
2 28526   4.0003  81.9418 0002892 105.3178 242.4617  1.00272331 68569
ASTRA 1KR               
1 29055U 06012A   23291.19784109  .00000133  00000+0  00000+0 0  9991
2 29055   0.0216 276.4200 0005314 306.7721 253.6963  1.00272105 63991
AMC-18                  
1 29644U 06054B   23291.46413032 -.00000204  00000+0  00000+0 0  9995
2 29644   0.0538  64.3399 0002428 144.4711 262.0077  1.00279229 61761
ASTRA 1L                
1 31306U 07016A   23291.05460185  .00000133  00000+0  00000+0 0  9998
2 31306   0.0526 331.4458 0004125 267.2985 186.4179  1.00271759 60281
ASTRA 4A (SIRIUS 4)     
1 32299U 07057A   23291.12334972  .00000046  00000+0  00000+0 0  9990
2 32299   0.0520  65.0601 0002553 143.1311 227.4086  1.00272247 41909
AMC-21                  
1 33275U 08038B   23291.55841723  .00000049  00000+0  00000+0 0  9992
2 33275   0.4246  93.6062 0002862 112.4345 256.9058  1.00272759 55718
ASTRA 1M                
1 33436U 08057A   23291.05460185  .00000133  00000+0  00000+0 0  9990
2 33436   0.0811  87.2203 0004614  85.6430 252.2877  1.00271964 35960
CIEL-2                  
1 33453U 08063A   23291.21513580  .00000071  00000+0  00000+0 0  9993
2 33453   0.2431  93.9761 0002704 106.4535 134.6490  1.00272892 54379
NSS-9                   
1 33749U 09008A   23291.55693391  .00000084  00000+0  00000+0 0  9991
2 33749   0.0366  54.4893 0002039 142.0345 213.8630  1.00271922 53813
SES-7 (PROTOSTAR 2)     
1 34941U 09027A   23291.04841010 -.00000332  00000+0  00000+0 0  9991
2 34941   0.0886  80.9384 0002067 151.0182 280.0321  1.00269648 52863
NSS-12                  
1 36032U 09058A   23291.06208580  .00000085  00000+0  00000+0 0  9993
2 36032   0.0156 298.6784 0002702 275.7880 251.2035  1.00271103 51166
SES-1                   
1 36516U 10016A   23291.20418233 -.00000101  00000+0  00000+0 0  9990
2 36516   0.0195 315.7788 0002458 252.0073 151.1968  1.00271826 49286
ASTRA 3B                
1 36581U 10021A   23291.05547208  .00000150  00000+0  00000+0 0  9999
2 36581   0.0575  22.4382 0003172 170.1122 237.2215  1.00272880 49115
SES-3                   
1 37748U 11035A   23291.49500358 -.00000089  00000+0  00000+0 0  9996
2 37748   0.0539  57.4685 0002554 149.2253 255.2614  1.00270962 44948
ASTRA 1N                
1 37775U 11041A   23291.19784109  .00000133  00000+0  00000+0 0  9997
2 37775   0.0905  57.2378 0000842  53.0358   6.6030  1.00271757 44648
SES-2                   
1 37809U 11049A   23291.46334712 -.00000183  00000+0  00000+0 0  9990
2 37809   0.0217 298.1674 0002245 262.2928 266.0637  1.00271237 44247
QUETZSAT 1              
1 37826U 11054A   23291.46534865 -.00000229  00000+0  00000+0 0  9997
2 37826   0.0416  59.0542 0002317 162.0380 256.1714  1.00272318 44342
SES-4                   
1 38087U 12007A   23291.40460685 -.00000155  00000+0  00000+0 0  9996
2 38087   0.0063  91.6045 0002740 130.7902 287.9121  1.00270434 42734
SES-5                   
1 38652U 12036A   23291.20188285  .00000047  00000+0  00000+0 0  9996
2 38652   0.0490 299.0092 0001918 263.6548 261.4593  1.00271999 41310
ASTRA 2F                
1 38778U 12051A   23291.48623407  .00000163  00000+0  00000+0 0  9991
2 38778   0.0632 249.7840 0004440 326.3161  13.8922  1.00274647 40532
SES-6                   
1 39172U 13026A   23291.11438639 -.00000248  00000+0  00000+0 0  9999
2 39172   0.0298 337.0266 0002486 234.0875 175.9351  1.00271498 37967
O3B FM5                 
1 39188U 13031A   23291.01031698 -.00000013  00000+0  00000+0 0  9995
2 39188   0.0355 357.1499 0002994 207.2963 155.5477  5.00115703188356
O3B FM4                 
1 39189U 13031B   23291.06595340 -.00000013  00000+0  00000+0 0  9990
2 39189   0.0603  12.6092 0002947 191.9181 155.4668  5.00116162188377
O3B FM2                 
1 39190U 13031C   23290.75815644 -.00000013  00000+0  00000+0 0  9999
2 39190   0.0646  14.9319 0002785 189.1595 155.9038  5.00115332188409
O3B PFM                 
1 39191U 13031D   23290.78394883 -.00000013  00000+0  00000+0 0  9990
2 39191   0.0438   2.3004 0002558 203.1477 154.5475  5.00115988187973
ASTRA 2E                
1 39285U 13056A   23291.12804895  .00000164  00000+0  00000+0 0  9995
2 39285   0.0828 317.3072 0002809 253.6542 249.9999  1.00273918 36681
SES-8                   
1 39460U 13071A   23291.14979639 -.00000257  00000+0  00000+0 0  9992
2 39460   0.0202 252.1673 0001612 267.2993  15.8766  1.00272421 34674
ASTRA 5B                
1 39617U 14011B   23291.48527683  .00000150  00000+0  00000+0 0  9997
2 39617   0.0788 301.5835 0003685 279.1447   4.2364  1.00274193 35118
O3B FM3                 
1 40079U 14038A   23290.43852599 -.00000013  00000+0  00000+0 0  9990
2 40079   0.0528  10.2874 0000420 250.3743  99.3418  5.00116680164337
O3B FM7                 
1 40080U 14038B   23290.78496444 -.00000013  00000+0  00000+0 0  9993
2 40080   0.0544  14.8080 0004356 181.7031 163.4828  5.00115898169181
O3B FM6                 
1 40081U 14038C   23291.41132146 -.00000013  00000+0  00000+0 0  9991
2 40081   0.0539   9.8776 0002621 195.3168 154.8009  5.00115199169490
O3B FM8                 
1 40082U 14038D   23290.86518303 -.00000013  00000+0  00000+0 0  9993
2 40082   0.0540  11.0011 0002614 197.4735 151.5193  5.00115275169252
O3B FM10                
1 40348U 14083A   23291.09156206 -.00000013  00000+0  00000+0 0  9994
2 40348   0.0489   1.4939 0002610 204.2976 154.2036  5.00115298161209
O3B FM11                
1 40349U 14083B   23290.50517992 -.00000013  00000+0  00000+0 0  9993
2 40349   0.0456   5.5732 0003105 189.1191 165.3068  5.00115545161203
O3B FM12                
1 40350U 14083C   23290.93224410 -.00000013  00000+0  00000+0 0  9992
2 40350   0.0466   5.7515 0002604 195.7027 158.5430  5.00115467161234
O3B FM9                 
1 40351U 14083D   23290.75884364 -.00000013  00000+0  00000+0 0  9993
2 40351   0.0446   6.3709 0002686 198.4654 155.1589  5.00115012161369
ASTRA 2G                
1 40364U 14089A   23291.12804895  .00000163  00000+0  00000+0 0  9991
2 40364   0.0604  38.5536 0001632  53.7994   8.3109  1.00271380 32219
SES-9                   
1 41380U 16013A   23291.43053959 -.00000332  00000+0  00000+0 0  9999
2 41380   0.0209 283.1082 0001551 213.4535 153.4193  1.00271514 27992
SES-10                  
1 42432U 17017A   23291.46735016 -.00000260  00000+0  00000+0 0  9997
2 42432   0.0354  60.8406 0002607 140.1641 287.0684  1.00268479 23978
SES-15                  
1 42709U 17026A   23291.21513583  .00000073  00000+0  00000+0 0  9991
2 42709   0.0205   7.4965 0000324 153.1632 174.1085  1.00268205 24389
SES-11 (ECHOSTAR 105)   
1 42967U 17063A   23291.49422791 -.00000077  00000+0  00000+0 0  9993
2 42967   0.0260 282.1935 0001938 315.4356 222.0806  1.00272545 22051
SES-14                  
1 43175U 18012B   23291.11299403 -.00000265  00000+0  00000+0 0  9990
2 43175   0.0223 293.2013 0000936 252.2028 194.1584  1.00270770 21300
O3B FM15                
1 43231U 18024A   23290.82494826 -.00000013  00000+0  00000+0 0  9990
2 43231   0.0511 358.4912 0002661 203.9647 157.5406  5.00114522102337
O3B FM16                
1 43232U 18024B   23291.07787208 -.00000013  00000+0  00000+0 0  9998
2 43232   0.0532 354.3964 0002710 208.4341 157.1656  5.00116262102267
O3B FM14                
1 43233U 18024C   23290.51827459 -.00000013  00000+0  00000+0 0  9990
2 43233   0.0547 353.6705 0002897 207.7080 158.6175  5.00115749102246
O3B FM13                
1 43234U 18024D   23288.77295502 -.00000014  00000+0  00000+0 0  9995
2 43234   0.0446  16.2061 0002343 171.7643 172.0335  5.00115640102263
SES-12                  
1 43488U 18049A   23291.49954854 -.00000257  00000+0  00000+0 0  9997
2 43488   0.0410  57.5702 0002023 188.8167  55.2013  1.00270752 19657
O3B FM20                
1 44112U 19020A   23290.94473607 -.00000013  00000+0  00000+0 0  9993
2 44112   0.0495   1.8265 0002763 193.5731 164.6002  5.00115745 82884
O3B FM19                
1 44113U 19020B   23287.97338915 -.00000015  00000+0  00000+0 0  9997
2 44113   0.0332   0.3700 0003449 176.7206 182.9187  5.00115777 82607
O3B FM17                
1 44114U 19020C   23290.85198101 -.00000013  00000+0  00000+0 0  9998
2 44114   0.0692   0.9057 0002627 200.3212 158.7704  5.00116018 82836
O3B FM18                
1 44115U 19020D   23290.99830641 -.00000013  00000+0  00000+0 0  9996
2 44115   0.0491   1.8078 0002694 203.8366 154.3504  5.00116045 82963
SES-17                  
1 49332U 21095A   23289.53299800 -.00000257  00000+0  00000+0 0  9991
2 49332   0.0119 225.9374 0001040 322.0156 321.6142  1.00267411  8076
SES-22                  
1 52933U 22071A   23291.55173925  .00000100  00000+0  00000+0 0  9997
2 52933   0.0124 209.1857 0001065 353.9561 247.2860  1.00271935  4817
SES-20                  
1 53960U 22123A   23289.59301472 -.00000087  00000+0  00000+0 0  9992
2 53960   0.0259 145.7899 0001712 322.6984  26.7764  1.00271371  3770
SES-21                  
1 53961U 22123B   23290.62790478  .00000083  00000+0  00000+0 0  9992
2 53961   0.0129 307.5661 0001051 256.4020 276.9754  1.00270339  3796
O3B MPOWER F1           
1 54755U 22174A   23291.05279448 -.00000013  00000+0  00000+0 0  9991
2 54755   0.0505  18.8020 0005167 202.8054  97.6930  5.00118384 16671
O3B MPOWER F2           
1 54756U 22174B   23291.38675463 -.00000013  00000+0  00000+0 0  9995
2 54756   0.0530  18.8604 0007516 234.4554 106.6099  5.00113562 16764
SES-18                  
1 55970U 23038A   23291.57079625 -.00000089  00000+0  00000+0 0  9996
2 55970   0.0161 247.1426 0002415 348.2152 253.8523  1.00271082  2369
SES-19                  
1 55971U 23038B   23291.55174003  .00000100  00000+0  00000+0 0  9994
2 55971   0.0143 274.3426 0001404 286.0206 250.1525  1.00270611  2334
O3B MPOWER F4           
1 56367U 23059A   23290.30832329 -.00000013  00000+0  00000+0 0  9995
2 56367   0.0377   4.2091 0006614 214.7434 141.0080  5.00115001  9886
O3B MPOWER F3           
1 56368U 23059B   23291.00810648 -.00000013  00000+0  00000+0 0  9994
2 56368   0.0369   1.1249 0003161 238.2052 120.6469  5.00114786  6059
